IRIDIUM 116             
1 43072U 17083C   23222.78031988  .00000122  00000+0  36634-4 0  9990
2 43072  86.3955  37.2391 0002053  86.0862 274.0568 14.34217046294907
IRIDIUM 130             
1 43073U 17083D   23222.95789595  .00000128  00000+0  38768-4 0  9990
2 43073  86.3963  37.3390 0002136  92.5762 267.5679 14.34216254294876
IRIDIUM 151             
1 43074U 17083E   23222.44415826  .00000125  00000+0  37752-4 0  9997
2 43074  86.3957  37.4139 0001927  87.3740 272.7676 14.34217533294828
IRIDIUM 134             
1 43075U 17083F   23222.55198881  .00000125  00000+0  37484-4 0  9991
2 43075  86.3958  37.3624 0002241  92.6712 267.4741 14.34218083294809
IRIDIUM 137             
1 43076U 17083G   23222.00652011  .00000132  00000+0  39978-4 0  9990
2 43076  86.3959  37.6631 0002128  85.2867 274.8571 14.34217719294791
IRIDIUM 141             
1 43077U 17083H   23222.76763909  .00000124  00000+0  37049-4 0  9991
2 43077  86.3955  37.2338 0001953  93.2670 266.8749 14.34217429294903
IRIDIUM 153             
1 43078U 17083J   23222.44073290  .00000394  00000+0  13351-3 0  9992
2 43078  86.4003   5.8288 0002165 102.5938 257.5500 14.34219284295961
IRIDIUM 131             
1 43079U 17083K   23222.40610850  .00000131  00000+0  39536-4 0  9991
2 43079  86.3960  37.5015 0002149  94.8287 265.3155 14.34218423294781
